store_id|address|address_2|address_3|city|state|zip|size_in_sf
1|HADLEYHAMPSHIRE 011069|HAMPSHIRE MALL|341 RUSSELL ST # B11|HADLEY|MA|1035|2666
2|N ATTLEBOROEMERALD SQ 011076|EMERALD SQUARE MALL|223 EMERALD SQ|N ATTLEBORO|MA|2760|2884
3|SAUGUSSQUARE ONE MALL 011099|SQUARE ONE MALL|1277 BROADWAY|SAUGUS|MA|1906|2131
4|BROCKTONWESTGATE 011108|200 WESTGATE DR STE 46||BROCKTON|MA|2301|2500
5|PLATTSBURGHCHAMPLAIN N 011288|CHAMPLAIN CENTER NORTH|60 SMITHFIELD BLVD STE 83|PLATTSBURGH|NY|12901|2379
6|AUBURNAUBURN MALL 011330|AUBURN MALL|385 SOUTHBRIDGE ST|AUBURN|MA|1501|2885
7|MOORESTOWNMOORESTOWN 011551|MOORESTOWN MALL|400 RT 38|MOORESTOWN|NJ|8057|2535
8|TOMS RIVEROCEAN CTY MALL 011592|OCEAN COUNTY MALL|1201 HOOPER AVE|TOMS RIVER|NJ|8753|2201
9|JOHNSON CITYOAKDALE MALL 011652|109 OAKDALE MALL||JOHNSON CITY|NY|13790|1950
10|CHESAPEAKEGREENBRIER 011736|GREENBRIER MALL|1401 GREENBRIER PKY #2149|CHESAPEAKE|VA|23320|2250
11|FAYETTEVILLECROSS CREEK 011792|116 CROSS CREEK MALL||FAYETTEVILLE|NC|28303|2480
12|STROUDSBURGSTROUD MALL 012039|344 STROUD MALL RD # 346||STROUDSBURG|PA|18360|2700
13|MUNCYLYCOMING 012078|300 LYCOMING MALL CIRCLE|SUITE 117|PENNSDALE|PA|17756|3394
14|ARLINGTONFASHION CENTRE 012116|FASHION CENTRE|1100 5 HAYES STREET|ARLINGTON|VA|22202|2042
15|WILMINGTONCONCORD PIKE 012147|4737 CONCORD PIKE||WILMINGTON|DE|19803|2432
16|E BRUNSWICKBRUNSWICK SQ 012246|BRUNSWICK SQUARE MALL|755 STATE RT 18 #704|E BRUNSWICK|NJ|8816|2980
17|LAWRENCEVILLEQUAKER BRID 012255|247 QUAKER BRIDGE MALL||LAWRENCEVILLE|NJ|8648|2320
18|NORTHLAKE MALL 012351|NORTHLAKE MALL SP 151|6801 NORTHLAKE MALL DR|CHARLOTTE|NC|28216|1826
19|JACKSONVILLE MALL 012365|351 JACKSONVILLE MALL||JACKSONVILLE|NC|28546|2748
20|EDISONMENLO PARK 012617|459 MENLO PARK MALL||EDISON|NJ|8837|2527
21|WOODBRIDGEPOTOMAC MILLS 012913|POTOMAC MILLS STE 156|2700 POTOMAC MILLS CIR|WOODBRIDGE|VA|22192|2217
22|REDONDOGALERIA 013014|THE GALLERIA|1815 HAWTHORNE BLVD # 241|REDONDO BEACH|CA|90278|2062
23|KENNEWICKCOLUMBIA CTR 013383|405 COLUMBIA CTR||KENNEWICK|WA|99336|2250
24|FLAGSTAFFFLAGSTAFF MALL 013471|FLAGSTAFF MALL|4650 N US HWY 89 STE G30|FLAGSTAFF|AZ|86004|2405
25|COLO. SPRINGSBRIARGATE 013491|1710 BRIARGATE BLVD #494||COLORADO SPG|CO|80920|2136
26|SHERMAN OAKSWESTFIELD 013585|WESTFIELD FASHION SQ MALL|14006 RIVERSIDE DR ST 273|SHERMAN OAKS|CA|91423|2046
27|TORRANCEDEL AMO FASHION 013674|DEL AMO FASHION CENTER|316 DEL AMO FASHION CTR|TORRANCE|CA|90503|2831
28|SALEMLANCASTER 013719|LANCASTER MALL|831 LANCASTER DR NE|SALEM|OR|97301|2788
29|VANCOUVERVANCOUVER MALL 013740|VANCOUVER MALL|8700 VANCOUVER MALL DR255|VANCOUVER|WA|98662|2565
30|PORTLANDWASHINGTON SQ 013743|WASHINGTON SQUARE #D12|9785 SW WASHINGTON SQ RD|PORTLAND|OR|97223|2081
31|HAPPY VALLEYCLACKAMAS 013746|CLACKAMAS TOWN CTR|12000 SE 82ND AVE #L209|HAPPY VALLEY|OR|97086|2636
32|SANTA ROSASANTA ROSA PLZ 013862|1032 SANTA ROSA PLAZA||SANTA ROSA|CA|95401|2241
33|SAN RAFAELNORTHGATE MALL 013884|NORTHGATE MALL STE 20|5800 NORTHGATE MALL DR|SAN RAFAEL|CA|94903|2323
34|CHICOCHICO MALL 013892|THE CHICO MALL|1950 E 20TH ST STE F617|CHICO|CA|95928|2386
35|HENDERSONGALLERIA 013983|GALLERIA AT SUNSET|1300 SUNSET RD STE 2401|HENDERSON|NV|89014|2325
36|OLYMPIACAPITOL MALL 014059|CAPITOL MALL STE 326|625 BLACK LAKE BLVD SW|OLYMPIA|WA|98502|2010
37|ROCHESTERMIRACLE MILE DR 014169|760 MIRACLE MILE DR||ROCHESTER|NY|14623|2250
38|AKRONCHAPEL HILL MALL 014326|CHAPEL HILL MALL|2000 BRITTAIN RD STE 881|AKRON|OH|44310|2074
39|BUFFALOGALLERIA MALL 014347|GALLERIA MALL|2000 WALDEN AVE #1102|BUFFALO|NY|14225|2391
40|ROCHESTERGREECE RIDGE 014387|GREECE RIDGE CENTER MALL|300 GREECE RIDGE CTR DR|ROCHESTER|NY|14626|2500
41|MIDLANDMIDLAND MALL 014419|6800 EASTMAN AVE #304||MIDLAND|MI|48642|2380
42|BARBOURSVILLEHUNTINGTON 014690|755 HUNTINGTON MALL|PO BOX 4132|BARBOURSVILLE|WV|25504|2312
43|MONROEMONROE ST 014751|THE MALL OF MONROE|2121 N MONROE ST #570|MONROE|MI|48162|2344
44|ERIEMILLCREEK MALL 014807|690 MILLCREEK MALL||ERIE|PA|16565|2360
45|COLUMBUS POLARIS FASH PLC 014832|POLARIS FASHION PLACE|1500 POLARIS PKWY # 2128|COLUMBUS|OH|43240|2283
46|SIOUX FALLSEMPIRE MALL 016031|EMPIRE MALL #928|4001 W 41ST|SIOUX FALLS|SD|57106|2173
47|SIOUXSOUTHERN HILLS MALL 016064|SOUTHERN HILLS MALL|4400 SERGEANT RD STE 508|SIOUX CITY|IA|51106|2511
48|ST PAULWHITE BEAR AVE N 016145|SUITE 1021|3001 WHITE BEAR AVE N|ST PAUL|MN|55109|1950
49|BURNSVILLEBURNSVILLE CTR 016164|1071 BURNSVILLE CTR||BURNSVILLE|MN|55306|1996
50|OKEMOSMERIDIAN 016313|MERIDIAN MALL 5 C|1982 W GRAND RIVER AVE|OKEMOS|MI|48864|2000
51|SPRINGFIELDWHITE OAKS 016480|262 WHITE OAKS MALL||SPRINGFIELD|IL|62704|2074
52|ST LOUISS COUNTY CTR WAY 016602|PO BOX 515371|371 5 COUNTY CENTER WAY|ST LOUIS|MO|63129|2401
53|COLUMBIACOLUMBIA MALL 016666|COLUMBIA MALL|2300 BERNADETTE DR #112|COLUMBIA|MO|65203|2116
54|PEORIAW WAR MEMORIAL DR 016850|NORTH WOODS MALL #123|2200 W WAR MEMORIAL DR|PEORIA|IL|61613|2196
55|ANN ARBORBRIARWOOD 016968|BRIARWOOD MALL|882 BRIARWOOD CIR #142|ANN ARBOR|MI|48108|2942
56|HOUSTONMEMORIAL CITY MAL 018011|303 MEML CITY MALL #633||HOUSTON|TX|77024|2009
57|PORT ARTHURCENTRAL 018034|CENTRAL MALL #134|3100 HWY 365|PORT ARTHUR|TX|77642|2481
58|TYLERBROADWAY SQ 018153|BROADWAY SQUARE|4601 5 BROADWAY AVE|TYLER|TX|75703|2542
59|SAN ANTONIOROLLING OAKS 018285|ROLLING OAKS MALL|6909 N LOOP 1604 E #2005|SAN ANTONIO|TX|78247|2829
60|CHESTERFIELDMALL 018471|30 CHESTERFIELD MALL||CHESTERFIELD|MO|63017|2500
61|CAPE GIRARDEAUW PARK 018479|WEST PARK MALL|3049 WILLIAM STE 223|CAPE GIRARDEAU|MO|63703|2543
62|WICHITAW. KELLOG 018573|TOWN WEST MALL|4600 W KELLOGG|WICHITA|KS|67209|3149
63|WOODLANDSWOODLANDS MALL 019243|THE WOODLANDS MALL|1201 LAKE WDLNDS DR #2094|THE WOODLANDS|TX|77380|2500
64|SANFORDSEMINOLE TWN CTR 019841|SEMINOLE TOWNE CENTER|287 TOWNE CENTER CIRCLE|SANFORD|FL|32771|2011
65|WICHITA FALLSSIKES 019901|SIKES CENTER MALL|3111 MIDWESTERN PKWY #454|WICHITA FALLS|TX|76308|2527
66|HUTCHINSON MALL 019942|HUTCHINSON MALL|1060 SR 15 & SOUTH GRADE|HUTCHINSON|MN|55350|2631
67|CAMBRIDGECAMBRIDGESIDE 011009|CAMBRIDGESIDE GALLERIA|100 CAMBRIDGESIDE PLACE|CAMBRIDGE|MA|2141|2454
68|NEWINGTONFOX RUN MALL 011019|FOX RUN MALL|50 FOX RUN RD STE 67|PORTSMOUTH|NH|3801|2710
69|GREENDALE MALL|GREENDALE MALL BOX C-9|7 NEPONSET BOX C9|WORCESTER|MA|1606|2569
70|NO DARTMOUTHDRTMTH MALL 011060|DARTMOUTH MALL ST RD 6|143 N DARTMOUTH MALL|NORTH DARTMOUTH|MA|2747|2100
71|BANGORUNION 011125|AIRPORT MALL|1129 UNION ST|BANGOR|ME|4401|2000
72|MARLBOROUGHSOLOMON POND 011164|SOLOMON POND MALL|601 DONALD LYNCH BLVD|MARLBOROUGH|MA|1752|2394
73|WARWICK MALL 011196|WARWICK MALL|400 BALD HILL RD STE 185|WARWICK|RI|2886|2376
74|HORSEHEADSARNOT MALL 011259|ARNOT MALL|3300 CHAMBERS RD|HORSEHEADS|NY|14845|2815
75|YORKTOWN HTSJEFFERSON VL 011261|JEFFERSON VALLEY MALL|650 LEE BLVD K11|YORKTOWN HTS|NY|10598|2185
76|TRUMBULLTRUMBULL CTR 011270|TRUMBULL SHOP CNTR|5065 MAIN ST|TRUMBULL|CT|6611|2468
77|ROTTERDAMSQUARE 011290|ROTTERDAM SQUARE MALL|93 W CAMPBELL RD # 6020|ROTTERDAM|NY|12306|3179
78|LEOMINSTERWHITNEY FIELD 011313|THE MALL AT WHITNEY FIELD|100 COMMERCIAL RD|LEOMINSTER|MA|1453|3000
79|MEDFORDMEADOW GLEN 011359|MEADOW GLEN MALL|3850 MYSTIC VALLEY PKWY|MEDFORD|MA|2155|2294
80|WHITE PLAINSGALLERIA 011429|GALLERIA OF WHITE PLAINS|100 MAIN ST|WHITE PLAINS|NY|10601|3157
81|ALLENTOWNSOUTH MALL 011438|SOUTH MALL|3300 LEHIGH ST #502|ALLENTOWN|PA|18103|2154
82|BANGORSTILLWATER 011525|BANGOR MALL|663 STILLWATER AVE|BANGOR|ME|4401|2378
83|AUBURNAUBURN MALL 011526|AUBURN MALL|550 CENTER ST|AUBURN|ME|4210|2200
84|SO BURLINGTONUNIVERSITY 011533|UNIVERSITY MALL STE B5||SO BURLINGTON|VT|5403|2203
85|BRIDGEWATERCOMMONS 011543|BRIDGEWATER COMMONS|400 COMMONS WAY STE #326|BRIDGEWATER|NJ|8807|2123
86|CHERRY HILLMALL 011550|1011 CHERRY HILL MALL||CHERRY HILL|NJ|8002|2800
87|YORKGALLERIA MALL 011579|YORK GALLERIA MALL|2899 WHITEFORD RD #206|YORK|PA|17402|2578
88|KINGSTONHUDSON VALLEY 011639|HUDSON VALLEY MALL|1300 ULSTER AVE STE 307|KINGSTON|NY|12401|2700
89|DANVILLE PIEDMONT 011703|PIEDMONT MALL|325 PIEDMONT DRIVE|DANVILLE|VA|24540|2358
90|RICHMONDCHESTERFIELD 011719|CHESTERFIELD MALL|11500 MIDLOTHIAN TPKE|RICHMOND|VA|23235|2835
91|VA BEACHLYNNHAVEN 011731|701 LYNNHAVEN PKWY #1228||VIRGINIA BEACH|VA|23452|2660
92|CHARLOTTESVILLE FASHION 011779|FASHION SQUARE|1553 RIO ROAD E|CHARLOTTESVILLE|VA|22901|2490
93|ORANGEBURGORANGE MALL 011781|PRINCE OF ORANGE MALL|2390 CHESTNUT ST BOX C19A|ORANGEBURG|SC|29115|3000
94|LUMBERTONBIGGS PARK 011790|BIGGS PARK MALL|2800 N ELM ST|LUMBERTON|NC|28358|3426
95|PHILADELPHIAFRANKLIN MLL 011816|FRANKLIN MILLS MALL #702A|1508 FRANKLIN MILLS CIR|PHILADELPHIA|PA|19154|1916
96|WINSTONSALEMHANES MALL 011909|HANES MALL SUITE 100|3320 SILAS CREEK PKWY|WINSTONSALEM|NC|27103|2896
97|MOUNT AIRYMAYBERRY MALL 011910|MAYBERRY MALL SHP CTR|105 US HWY 52 N|MOUNT AIRY|NC|27030|3180
98|GASTONIAEASTRIDGE 011913|EASTRIDGE MALL|P 0 BOX 5124|GASTONIA|NC|28054|2514
99|MYRTLE BEACHCOLONIAL 011940|COLONIAL MALL UNIT 15|10177 N KINGS HWY|MYRTLE BEACH|SC|29572|2235
100|HICKORYVALLEY 011976|VALLEY HILLS MALL|1960 HWY 70 SE STE 152|HICKORY|NC|28602|2333
101|CHESAPEAKESQUARE MALL 011990|CHESAPEAKE SQUARE MALL|4200 PORTSMOUTH BLVD #224|CHESAPEAKE|VA|23321|2678
102|LANCASTERPARK CITY 012005|834 PARK CITY CTR||LANCASTER|PA|17601|2721
103|EASTONPALMER PK MALL 012007|101 PALMER PARK MALL||EASTON|PA|18045|2476
104|WHITEHALLLEHIGH 012025|211 LEHIGH VALLEY MALL||WHITEHALL|PA|18052|2697
105|DOVERDOVER MALL 012048|DOVER MALL|1365 N DUPONT HWY STE1084|DOVER|DE|19901|2449
106|GRBURG LAKE FOREST MALL 012072|LAKE FOREST MALL|701 RUSSELL AVE|GAITHERSBURG|MD|20877|2800
107|SELINGSGROVESUSQUEHANNA 012077|SUSQUEHANNA VLY MALL #H2A|1 SUSQUEHANNA VLY MALL DR|SELINSGROVE|PA|17870|2604
108|SPRINGFIELDSPRINGFIELD 012135|SPRINGFIELD MALL|1250 BALTIMORE PIKE|SPRINGFIELD|PA|19064|1713
109|CHRISTIANSBURGNEW RIVER 012182|NEW RIVER VALLEY MALL|606 NEW RIVER ROAD|CHRISTIANSBURG|VA|24073|2516
110|NEWPORT NEWSJEFFERSON 012188|PATRICK HENRY MALL|12300 JEFFERSON AVE #F14|NEWPORT NEWS|VA|23602|2547
111|WALDORFMALL CIRCLE 012191|11110 MALL CIR STE 1061|PO BOX 6087|WALDORF|MD|20603|2358
112|VOORHEES TOWN CENTER 012217|VOORHEES TOWN CENTER|1155 VOORHEES TOWN CENTER|VOORHEES|NJ|8043|2000
113|EATONTOWNMONMOUTH MALL 012254|MONMOUTH MALL|180 STATE ROUTE 35 #1016|EATONTOWN|NJ|7724|2484
114|GREENVILLECOLONIAL MALL 012330|COLONIAL MALL|714 GREENVILLE BLV SE #F8|GREENVILLE|NC|27858|2617
115|WILMINGTONINDEPENDENCE 012361|INDEPENDENCE MALL|3500 OLEANDER DR # 1010|WILMINGTON|NC|28403|2338
116|VA BEACHPEMBROKE MALL 012403|PEMBROKE MALL STE 820|4554 VIRGINIA BCH BLV 820|VIRGINIA BEACH|VA|23462|2837
117|ROANOKEVALLEY VIEW 012414|VALLEY VIEW MALL|4802 VALLEY VIEW BLVD NW|ROANOKE|VA|24012|2760
118|STAUNTON MALL|90 LEE-JACKSON HWY #137||STAUNTON|VA|24401|1848
119|VALLEY STREAMGREEN ACRES 012711|1017 GREEN ACRES MALL||VALLEY STREAM|NY|11581|3786
120|GARDEN CITYROOSEVELT FLD 012810|ROOSEVELT FIELD MALL||GARDEN CITY|NY|11530|1556
121|LIVINGSTONLIVINGSTN MALL 012815|LIVINGSTON MALL|112 EISENHOWER PKWY|LIVINGSTON|NJ|7039|1717
122|STAMFORD TOWN CTR 012852|STAMFORD TOWN CTR|100 GREYROCK PL 4TH FLR|STAMFORD|CT|6901|2502
123|BALTIMORESECURITY SQ 012905|SECURITY SQUARE MALL|6901 SECURITY BLVD|BALTIMORE|MD|21244|2829
124|COLUMBIAMALL 012917|MALL IN COLUMBIA # 2370|10300 LITTLE PATUXNT PKWY|COLUMBIA|MD|21044|2114
125|ANNAPOLISANNA. MALL 012922|1455 ANNAPOLIS MALL||ANNAPOLIS|MD|21401|2474
126|BOWIE TOWN CTR 012936|BOWIE TOWN CTR|15633 EMERALD WAY|BOWIE|MD|20716|2553
127|LA MESAGROSSMONT CTR 013101|5500 GROSSMONT CENTER||LA MESA|CA|91942|2560
128|WESTMINISTERMALL 013166|2036 WESTMINSTER MALL||WESTMINSTER|CA|92683|2433
129|EVERETTEVERETT MALL WAY 013372|SUITE 365|1402 SE EVERETT MALL WAY|EVERETT|WA|98208|2355
130|RENOMEADOWOOD MALL 013380|5318 MEADOWOOD MALL||RENO|NV|89502|2500
131|WOODLANDCTY FAIR MALL 013389|COUNTY FAIR MALL|1264 E GIBSON RD STE C313|WOODLAND|CA|95776|2388
132|PUYALLUPSOUTH HILL 013394|SOUTH HILL MALL|3500 MERIDAN ST 5 #140|PUYALLUP|WA|98373|2323
133|TEMPES AZ MILLS CIRCLE 013439|SUITE 201|5000 5 ARIZONA MILLS CIR|TEMPE|AZ|85282|2584
134|TUCSONTUCSON MALL 013477|TUCSON MALL|4500 N ORACLE RD #205|TUCSON|AZ|85705|3000
135|LAKEWOODLAKEWOOD CTR 013591|58 LAKEWOOD CTR MALL||LAKEWOOD|CA|90712|2531
136|LOS ANGELESCOLORADO BLVD 013665|EAGLE ROCK PLAZA MALL|2700 COLORADO BLVD # 146|LOS ANGELES|CA|90041|2352
137|PALM DESERTWESTFIELD 013690|WESTFIELD PALM DESERT|72840 HIGHWAY 111 E173|PALM DESERT|CA|92260|2100
138|BUTTEHARRISON 013750|BUTTE PLAZA MALL|3100 HARRISON|BUTTE|MT|59701|2400
139|SPOKANENORTHTOWN MALL 013761|NORTHTOWN MALL|4750 N DIVISION #1009|SPOKANE|WA|99207|2106
140|MEDFORDRIVERSIDE 013783|1600 N RIVERSIDE #1081||MEDFORD|OR|97501|2594
141|ROSEBURG-GARDEN VALLEY 01-3787|1444 NW GARDEN VLY #290||ROSEBURG|OR|97470|2294
142|FAIRFIELDSOLANO MALL 013861|SOLANO MALL|1350 TRAVIS BLVD STE 1361|FAIRFIELD|CA|94533|2365
143|REDDING MT SHASTA MALL 013937|MT SHASTA MALL|900 DANA DR STE 31C|REDDING|CA|96003|2392
144|LOGANN MAIN 014005|1300 N MAIN||LOGAN|UT|84341|2358
145|BOISETOWNE SQUARE MALL 014015|BOISE TOWNE SQUARE MALL|350 N MILWAUKEE #2005|BOISE|ID|83704|2727
146|TACOMAS STEELE 014058|4502 5 STEELE ST #501A||TACOMA|WA|98409|2643
147|MONACABEAVER VALLEY MALL 014113|272 BEAVER VALLEY MALL||MONACA|PA|15061|2500
148|JOHNSTOWNGALLERIA 014122|GALLERIA MALL|500 INDUSTRIAL PARK #283|JOHNSTOWN|PA|15904|2586
149|STATE COLLEGENITTANY 014137|NITTANY MALL|2901 E COLLEGE AVE #620|STATE COLLEGE|PA|16801|3312
150|UNIONTOWNUNIONTOWN MALL 014141|UNIONTOWN MALL|1614 MALL RUN RD|UNIONTOWN|PA|15401|2449
151|BUTLERCLEARVIEW MALL 014160|CLEARVIEW MALL|101 CLEARVIEW CIRCLE|BUTLER|PA|16001|2790
152|PARMAPARMA TOWN MALL 014204|PARMATOWN MALL|7897 W RIDGEWOOD DR #480|PARMA|OH|44129|2341
153|MORGANTOWNMORGANTOWN ML 014246|MORGANTOWN MALL|9227 MALL RD|MORGANTOWN|WV|26501|2329
154|NILES EASTWOOD MALL 014311|EASTWOOD MALL #406|5555 YOUNGSTOWN WARREN RD|NILES|OH|44446|3800
155|ASHTABULANORTH RIDGE 014344|3315 NORTH RIDGE EAST||ASHTABULA|OH|44004|2400
156|AMHERSTBOULEVARD MALL 014364|BOULEVARD MALL|708 ALBERTA DR STE 513|AMHERST|NY|14226|3366
157|RICHMOND SQUARE MALL|RICHMOND SQUARE S-C|3801 NATIONAL RD E RM 753|RICHMOND|IN|47374|2400
158|EASTLAND MALL|4264 EASTLAND MALL #C1-B||COLUMBUS|OH|43232|2396
159|DEFIANCE NORTHTOWNE MALL 014425|NORTHTOWNE MALL|1500 N CLINTON ST|DEFIANCE|OH|43512|2213
160|LEXINGTONNICHOLASVILLE 014542|FAYETTE MALL STE 730|3615 NICHOLASVILLE RD|LEXINGTON|KY|40503|2364
161|BOWLING GREENGREENWOOD 014562|GREENWOOD MALL|2625 SCOTTSVILLE RD #322|BOWLING GREEN|KY|42104|2289
162|CLARKSVILLEGREEN TREE 014563|GREEN TREE MALL|757 LEWIS & CLARK PKY 300|CLARKSVILLE|IN|47129|2000
163|ELIZABETHTOWNTOWNE MALL 014575|TOWNE MALL|1704 N DIXIE HWY|ELIZABETHTOWN|KY|42701|3150
164|CLARKSVILLEGOVERNORS SQ 014586|GOVERNORS SQ MALL #160|2801 WILMA RUDOLPH BLVD|CLARKSVILLE|TN|37040|2330
165|CHARLESTONCHARLESTON TOW 014593|CHARLESTON TOWN CENTER|1059 CHARLESTON TOWN CTR|CHARLESTON|WV|25389|2217
166|CINCINNATINORTHGATE 014630|NORTHGATE MALL|9513 COLERAIN AVE|CINCINNATI|OH|45251|2402
167|CINCINNATIE GATE 014636|4601 EASTGATE BLVD #100||CINCINNATI|OH|45245|2716
168|ASHLANDWINCHESTER AVE 014647|500 WINCHESTER AVE #354||ASHLAND|KY|41101|2433
169|BLUEFIELDMERCER MALL 014692|215 MERCER MALL|PO BOX 7173|BLUEFIELD|WV|24701|2878
170|SPRINGFIELDUPPER VALLEY 014715|1475 UPPER VALLEY PIKE||SPRINGFIELD|OH|45504|2872
171|MEMPHISWOLFCHASE GALLERI 014748|WOLFCHASE GALLERIA|2760 N GERMANTOWN RD #286|MEMPHIS|TN|38133|2330
172|SANDUSKYMALL 014762|590 SANDUSKY MALL|4314 MILAN RD|SANDUSKY|OH|44870|2612
173|CLARIONCLARION MALL 014887|CLARION MALL|22631 ROUTE 68 STE 460|CLARION|PA|16214|2040
174|KNOXVILLEWEST TOWN SC 014914|WEST TOWN SHP CTR|7600 KINGSTON PIKE|KNOXVILLE|TN|37919|2000
175|CHATTANOOGANORTHGATE 014923|NORTHGATE MALL|5000 HIXSON PK STE 352|CHATTANOOGA|TN|37415|1971
176|DES MOINESMERLE HAY 016022|3800 MERLE HAY RD #1321||DES MOINES|IA|50310|2625
177|RICE LAKECEDAR MALL S C 016030|CEDAR MALL S C|2900 S MAIN ST|RICE LAKE|WI|54868|1800
178|RAPID CITYRUSHMORE MALL 016062|RUSHMORE MALL|2200 N MAPLE SUITE 102|RAPID CITY|SD|57701|2889
179|MINNEAPOLISNICOLLET AVE 016072|651 NICOLLET AVE #203||MINNEAPOLIS|MN|55402|2666
180|LA CROSSEVALLEY VIEW 016074|VALLEY VIEW MALL|3800 HWY 16 SUITE 143|LACROSSE|WI|54601|2274
181|PIERREPIERRE MALL 016097|PIERRE MALL|1615 N HARRISON|PIERRE|SD|57501|2000
182|FAIRMONTFIVE LAKES CTR 016127|FIVE LAKES CENTER|430 S STATE ST|FAIRMONT|MN|56031|1981
183|BLAINENORTHTOWN DR 016151|272 NORTHTOWN DR NE||BLAINE|MN|55434|2621
184|W DES MOINES JORDAN CK TC 016154|JORDAN CREEK TWN CTR|101 JORDAN CRK PKY #12036|WEST DES MOINES|IA|50266|2811
185|JAMESTOWNBUFFALO MALL 016175|BUFFALO MALL|2400 8TH AVE SW STE F6|JAMESTOWN|ND|58401|2000
186|DAVENPORTNORTHPARK MALL 016182|NORTHPARK MALL|320 W KIMBERLY RD #17|DAVENPORT|IA|52806|2664
187|EAU CLAIREOAKWOOD MALL 016183|OAKWOOD MALL|4800 GOLF RD|EAU CLAIRE|WI|54701|2070
188|ST CLOUDCROSSROADS MALL 016185|CROSSROADS MALL|4101 W DIVISION ST #C12|SAINT CLOUD|MN|56301|2070
189|GURNEE MILLS SC 016206|GURNEE MILLS SHOP CTR|6170 WEST GRAND AVE|GURNEE|IL|60031|3002
190|MADISONEAST TOWNE MALL 016216|46 EAST TOWNE MALL||MADISON|WI|53704|3790
191|FOND DU LACFOREST 016238|FOREST MALL|835 W JOHNSON|FOND DU LAC|WI|54935|2599
192|GREEN BAY BAY PARK 016263|323 BAY PARK SQUARE||GREEN BAY|WI|54304|2513
193|MARQUETTEWESTWOOD PLAZA 016276|WESTWOOD PLAZA MALL|3020 US HWY 41 WEST STE 5|MARQUETTE|MI|49855|2838
194|TOLEDO 016354|FRANKLIN PARK|5001 MONROE ST STE 368|TOLEDO|OH|43623|2196
195|RIVERSIDERIVERSIDE PARK 016452|N. RIVERSIDE PARK MALL|7501 W CERMAK|N RIVERSIDE|IL|60546|2427
196|GREENDALESOUTHRIDGE 016473|SOUTHRIDGE MALL|5300 SOUTH 76TH ST|GREENDALE|WI|53129|2456
197|ALTONALTON SQ 016484|204 ALTON SQUARE||ALTON|IL|62002|2446
198|BOURBONNAISSTATE RT 50 016511|1600 STATE RT 50 #330||BOURBONNAIS|IL|60914|2556
199|TERRE HAUTEHONEY CR 016707|HONEY CREEK SHPG CTR|3401 5 US HWY 41 STE E4|TERRE HAUTE|IN|47802|2460
200|QUINCYQUINCY MALL 016712|3333 QUINCY MALL||QUINCY|IL|62301|2600
201|INDIANAPOLISWASHINGTON S 016735|WASHINGTON SQUARE SHOP CT|10202 E WASHINGTON ST|INDIANAPOLIS|IN|46229|2875
202|INDCASTLETON 016740|CASTLETON SQ SHOP CNTR|6020 E 82ND ST|INDIANAPOLIS|IN|46250|2527
203|PORTAGES WESTNEDGE AVE 016768|6650 5 WESTNEDGE STE 146||PORTAGE|MI|49024|2222
204|WEST DUNDEESPRING HILL 016827|1506 SPRING HILL MALL||WEST DUNDEE|IL|60118|2258
205|MOLINESOUTHPARK PLAZA 016854|SOUTHPARK PLAZA|4500 16TH ST|MOLINE|IL|61265|2471
206|JACKSONJACKSON CROSSING 016921|1200 JACKSON CROSSING||JACKSON|MI|49202|2400
207|MISHAWAKAUNIVERSITY MALL 016963|UNIVERSITY MALL|6501 GRAPE ROAD|MISHAWAKA|IN|46545|2080
208|FORT GRATIOTBIRCHWOOD 016989|BIRCHWOOD MALL|4350 24TH AVE #112|FORT GRATIOT|MI|48059|2273
209|TROYOAKLAND MALL 016998|OAKLAND MALL|604 WEST 14 MILE RD #354|TROY|MI|48083|2843
210|MCALLENLA PLAZA MALL 018036|LA PLAZA MALL|2200 510TH #C7|MCALLEN|TX|78503|3480
211|VALLE VISTA MALL|2000 5 EXPY 83 STE A-02||HARLINGEN|TX|78552|2550
212|SAN ANTONIONW LOOP 410 018059|6301 NW LOOP 410 SP LO7B||SAN ANTONIO|TX|78238|2775
213|BROWNSVILLESUNRISE MALL 018060|SUNRISE MALL|2370 N EXPRESSWAY|BROWNSVILLE|TX|78521|3149
214|TEMPLETEMPLE MALL 018155|TEMPLE MALL|3111 SOUTH 31ST ST|TEMPLE|TX|76502|3035
215|IRVINGIRVING MALL 018178|3623 IRVING MALL||IRVING|TX|75062|2071
216|JONESBOROE HIGHLAND DR 018195|3000 E HIGHLAND DR #111||JONESBORO|AR|72401|2776
217|SAN ANTONIOWONDERLAND AM 018202|WONDERLAND OF AM #B46|4522 FREDERICKSBURG RD|SAN ANTONIO|TX|78201|2830
218|BAYTOWNSAN JACINTO 018284|1052 SAN JACINTO MALL||BAYTOWN|TX|77521|3000
219|ARLINGTONTHE PARKS 018385|THE PARKS AT ARLINGTON|3811 5 COOPER ST STE 1014|ARLINGTON|TX|76015|2453
220|MERIDIANBONITA LAKE MALL 018414|BONITA LAKES MALL|1060 BONITA LAKES CIR|MERIDIAN|MS|39301|2125
221|W. MEMPHISHOLIDAY PLAZA 018442|HOLIDAY PLAZA MALL|1800 N MISSOURI ST STE 6|WEST MEMPHIS|AR|72301|3888
222|SHREVEPORTST VINCENT 018482|1133 SAINT VINCENT AVE160||SHREVEPORT|LA|71104|1992
223|TEXARKANACENTRAL MALL 018483|16 CENTRAL MALL|2300 RICHMOND RD|TEXARKANA|TX|75503|2513
224|JEFFERSON CITYCAPITAL 018563|3600 S COUNTRY CLUB DR||JEFFERSON CITY|MO|65109|2687
225|ALBUQUERQUECOTTONWOOD 018618|COTTONWOOD MALL|10000 COORS BLVD NW|ALBUQUERQUE|NM|87114|1810
226|SALT LAKEVALLEY FAIR 018624|VALLEY FAIR MALL|3601 SOUTH 2700 WEST|SALT LAKE CITY|UT|84119|2479
227|HELENACAPITAL HILL MALL 018634|CAPITAL HILL MALL|1600 11TH AVE|HELENA|MT|59601|2400
228|AURORAALEMEDA 018653|AURORA MALL UNIT 2008A|14200 E ALEMEDA AVE|AURORA|CO|80012|2339
229|SIERRA VISTAEL MERCADO 018657|2200 EL MERCADO LOOP 1170||SIERRA VISTA|AZ|85635|2354
230|FRONTIER MALLDELL RANGE 018671|FRONTIER MALL SPACE 51A|1400 DEL RANGE RD|CHEYENNE|WY|82009|2252
231|GRAND JUNCTIONMESA 018691|#92 MESA MALL|2424 US 6 & 50|GRAND JUNCTION|CO|81505|3104
232|LAS CRUCESMESILLA VLY 018694|MESILLA VALLEY MALL|700 TELSHOR STE 1512|LAS CRUCES|NM|88011|2325
233|ATLANTA GREENBRIAR 018701|GREENBRIAR MALL|2841 GREENBRIAR PKWY SW|ATLANTA|GA|30331|2543
234|ATLANTAPERIMETER 018729|PERIMETER MALL S C|4400 ASHFORD DUNWOODY RD|ATLANTA|GA|30346|2594
235|THE MALL WEST END SC|THE MALL-WEST END S C|868 OAK STREETS W|ATLANTA|GA|30310|2250
236|DECATURS. DEKALB 018749|32 SOUTH DEKALB MALL||DECATUR|GA|30034|3015
237|DOUGLASVILLE ARBOR PL 018782|ARBOR PLACE MALL|1320 ARBOR PL MALL|DOUGLASVILLE|GA|30135|2300
238|MORROWSOUTHLAKE 018785|1106 SOUTHLAKE MALL||MORROW|GA|30260|2838
239|NORTHWOODS MALL|2150 NORTHWOODS BLV #F-05||CHARLESTON|SC|29406|2523
240|FT MYERSEDISON MALL 018805|1325 EDISON MALL|4125 CLEVELAND AVE #1030|FT MYERS|FL|33901|2374
241|PEMBROKE PINESPINES 018826|PEMBROKE LAKES MALL #310|11401 PINES BLVD|PEMBROKE PINES|FL|33026|2328
242|PENSACOLACORDOVA MALL 018854|5100 N 9TH AVE||PENSACOLA|FL|32504|3490
243|ORANGE PARKMALL 018860|ORANGE PARK MALL|1910 WELLS RD|ORANGE PARK|FL|32073|2816
244|DAYTONAVOLUSIA MALL 018861|VOLUSIA MALL #426|1700 W INTRNTL SPEEDWAY|DAYTONA BEACH|FL|32114|3255
245|ORLANDOFASHION SQ MALL 018866|FASHION SQUARE MALL|3477 E COLONIAL DR # D46|ORLANDO|FL|32803|3060
246|TALAHASSEE GOVERNORS SQ 018891|GOVERN'S SQ MALL|1500 APALACHEE|TALLAHASSEE|FL|32301|2333
247|LEESBURGUS HWY 441 018893|10401 US HWY 441 STE 120||LEESBURG|FL|34788|2549
248|OCALA PADDOCK MALL 018894|PADDOCK MALL|3100 SW COLLEGE RD #384|OCALA|FL|34474|2009
249|BAYAMONRIO HONDO 018956|RIO HONDO PLAZA #27||BAYAMON|PR|956|3000
250|PONCECENTRO DEL SUR 018961|CENTRO SUR MALL|1485 BLVD MIGUEL POU #253|PONCE|PR|731|2710
251|BAYAMONSANTA ROSA 018968|SANTA ROSA MALL SPACE 14||BAYAMON|PR|959|2751
252|CORAL SPRINGSCORAL SQ 018970|CORAL SQUARE SHP CTR|9473 WEST ATLANTIC BLVD|CORAL SPRINGS|FL|33071|2379
253|BOYNTON BEACHCONGRESS 018982|BOYNTON BEACH MALL|801 N CONGRESS AVE #753|BOYNTON BEACH|FL|33426|2488
254|THE GARDENS|3101 PGA BLVD #0-203||PALM BCH GARDEN|FL|33410|2500
255|CAPITOLACAPITOLA MALL 019013|CAPITOLA MALL|1855 41ST AVE #F3|CAPITOLA|CA|95010|2442
256|HOUMASOUTHLAND MALL 019102|SOUTHLAND MALL|5953 W PARK AVE STE 1015|HOUMA|LA|70364|2500
257|BILOXIEDGEWATER PLAZA 019110|EDGEWATER PLAZA 5 C|2600 BEACH BLVD|BILOXI|MS|39531|2058
258|MONROEPECANLAND MALL 019125|PECANLAND MALL|4700 MILLHAVEN RD #1058|MONROE|LA|71203|2470
259|LAFAYETTEACADIANA 019183|ACADIANA MALL #F243|5725 JOHNSTON ST|LAFAYETTE|LA|70503|2381
260|SAN ANTONIOSOUTHPARK 019221|SOUTHPARK MALL|2310 SW MILITARY DE #122|SAN ANTONIO|TX|78224|2552
261|ABILENEMALL OF ABILENE 019280|MALL OF ABILENE|4310 BUFFALO GAP RD #1234|ABILENE|TX|79606|2809
262|MOBILEBEL AIR 019307|3288 BEL AIR MALL||MOBILE|AL|36606|3166
263|OXFORDQUINTARD MALL 019313|700 QUINTARD MALL STE 20||OXFORD|AL|36203|2600
264|GADSDENMALL 019315|GADSDEN MALL SHOP CTR|1001 RAINBOW DR STE 42B|GADSDEN|AL|35901|2383
265|FRANKLINGALLARIA 019316|COOL SPRINGS GALLERIA|1800 GALLERIA BLVD|FRANKLIN|TN|37067|2177
266|JASPERMALL 019335|JASPER MALL|300 HWY 78 E STE 264|JASPER|AL|35501|2025
267|KNOXVILLE CENTER MALL 019352|KNOXVILLE CENTER MALL|3001 KNOXVILLE CTR DR1265|KNOXVILLE|TN|37924|2500
268|CHATTANOOGAHAMILTON PLAC 019366|2100 HAMILTON PLACE||CHATTANOOGA|TN|37421|1930
269|MURFREESBOROOLD FORT 019384|1720 OLD FORT PARKWAY||MURFREESBORO|TN|37129|2550
270|PANAMA CITYMALL 019391|PANAMA CITY MALL|2154 COVE BLVD|PANAMA CITY|FL|32405|2692
271|CLEARWATERCOUNTRYSIDE MA 019508|1077 COUNTRYSIDE MALL|27001 US HWY 19 N #1077|CLEARWATER|FL|33761|2112
272|BAYAMONCANTON MALL 019521|CANTON MALL|40 CALLE BETANCES SP F4|BAYAMON|PR|961|2700
273|SARASOTAWESTFIELD SHPTWN 019526|WESTFIELD SHOPPINGTOWN|8201 5 TAMIAMI TRAIL #43|SARASOTA|FL|34238|2690
274|SAN JUAN MONTEHIEDRA 019566|MONTEHIEDRA TOWN CTR|9410 LOS ROMEROS AVE|SAN JUAN|PR|926|2165
275|TOA ALTA PLAZA AQUARIUM 019574|PLAZA AQUARIUM MALL|ST RD PR 159|TOA ALTA|PR|953|2725
276|MYRTLE BEACHCOASTAL GRND 019615|COASTAL GRAND|2000 COASTAL GRD CIR #335|MYRTLE BEACH|SC|29577|2653
277|GREENVILLEHAYWOOD 019635|HAYWOOD MALL|700 HAYWOOD RD 8504|GREENVILLE|SC|29607|2265
278|AUGUSTA MALL|AUGUSTA MALL-UNIT 2285|3450 WRIGHTSBORO RD|AUGUSTA|GA|30909|2500
279|SAVANNAH OGLETHORPE 019684|OGLETHORPE MALL|7804 ABERCORN ST UNIT 120|SAVANNAH|GA|31406|2547
280|ATHENSMALL 019686|GEORGIA SQUARE #50|3700 ATLANTA HWY|ATHENS|GA|30606|2915
281|NAPLESTAMIAMI TRAIL 019722|2016 TAMIAMI TRAIL N E3||NAPLES|FL|34102|2795
282|PORT CHARLOTTETAMIAMI 019726|PORT CHARLOTTE TOWN CTR|1441 TAMIAMI TRAIL (#855)|PORT CHARLOTTE|FL|33948|2583
283|GRETNAOAKWOOD CENTER 019746|OAKWOOD CENTER|197 WESTBANK EXPWY #1220|GRETNA|LA|70053|2832
284|AIKEN AIKEN MALL 019755|AIKEN MALL|2441 WHISKEY RD|AIKEN|SC|29803|2006
285|COLUMBIACOLUMBIANA 019759|COLUMBIANA CTR #1466|100 COLUMBIANA CIR #1466|COLUMBIA|SC|29212|2661
286|JACKSONVILLETHE AVENUES 019824|MALL OF THE AVENUES #234|10300 SOUTHSIDE BLVD|JACKSONVILLE|FL|32256|2810
287|BRANDONTOWN CENTER 019829|670 BRANDON TWN CTR MALL||BRANDON|FL|33511|2340
288|VERO BEACHINDIAN RIVER 019847|INDIAN RIVER MALL #790|6200 20TH ST #790|VERO BEACH|FL|32966|2221
289|MARY ESTHERSANTA ROSA 019851|SANTA ROSA MALL|300 MARY ESTHER BLVD #54|MARY ESTHER|FL|32569|2462
290|SEBRING LAKESHORE MALL 019881|LAKESHORE MALL|901 US HWY 27 N STE 3|SEBRING|FL|33870|2399
291|MIAMIDOLPHIN MALL 019882|DOLPHIN MALL|11401 NW 12TH ST UNIT 250|MIAMI|FL|33172|2204
292|WELLINGTON GREEN MALL 019892|SUITE 155|10300 W FOREST HILLS BLVD|WELLINGTON|FL|33414|2600
293|EL PASOCIELO VISTA MALL 019902|CIELO VISTA MALL|8401 GATEWAY W STE RO1|EL PASO|TX|79925|2373
294|BLOOMINGTONMALL/AMERICA 019931|MALL OF AMERICA|338 E BROADWAY SPC E338B|BLOOMINGTON|MN|55425|2643
295|MIDLANDMIDKIFF DR 019936|MIDLAND PARK MALL|4511 N MIDKIFF RD #A03|MIDLAND|TX|79705|2815
296|BELMONT-BELKNAP MALL 01-1067|BELKNAP MALL #45|96 DANIEL WEBSTER HWYWAY|BELMONT|NH|3220|2212
297|KINGSTONINDEPENDENCE 011074|INDEPENDENCE MALL|101 INDEPENDENCE MALL WAY|KINGSTON|MA|2364|2762
298|5 PORTLANDMAINE MALL 011096|MAINE MALL|367 MAINE MALL|S PORTLAND|ME|4106|2099
299|BRAINTREESOUTH SHORE 011103|SOUTH SHORE PLAZA|250 GRANITE ST #C3|BRAINTREE|MA|2184|2500
300|HYANNISCAPE COD MALL 011160|CAPE COD MALL BOX 59|793 IYANNOUGH RD|HYANNIS|MA|2601|2500
301|WATERBURYBRASS MILL CTR 011175|BRASS MILL CENTER|495 UNION ST SUITE 1004|WATERBURY|CT|6706|2114
302|WILLIMANTICEAST BROOK 011250|EAST BROOK MALL|95 STORRS RD|WILLIMANTIC|CT|6226|2700
303|HOLYOKEINGLESIDE MALL 011537|50 HOLYOKE ST|PO BOX 10096|HOLYOKE|MA|1040|2379
304|ST JOHNSBURYGREENMTN 011539|GREEN MOUNTAIN MALL|1998 MEMORIAL DR STE 12|ST JOHNSBURY|VT|5819|2000
305|GREENSBOROFOUR SEASONS 011750|FOUR SEASONS TOWN CENTRE|SUITE 304|GREENSBORO|NC|27407|2347
306|HARRISONBURG VALLEY 011778|VALLEY MALL SUITE 502|1925 E MARKET|HARRISONBURG|VA|22801|2387
307|PHILAGALLERY 011823|GALLERY II|1001 MARKET ST STE 1|PHILADELPHIA|PA|19107|2383
308|SCRANTONVIEWMONT MALL 011830|VIEWMONT MALL|100 VIEWMONT MALL|SCRANTON|PA|18508|2360
309|MORRISTOWNCOLLEGE SQ 011980|COLLEGE SQUARE MALL #44|2550 E. MORRIS BLVD|MORRISTOWN|TN|37813|2505
310|POTTSVILLEFAIRLANE VLG 012018|7250 FAIRLANE VLG MALL||POTTSVILLE|PA|17901|2000
311|WYOMISSINGBERKSHIRE 012136|BERKSHIRE MALL|1665 STATE HILL RD|WYOMISSING|PA|19610|2640
312|ASHEBORORANDOLPH MALL 012336|RANDOLPH MALL HWY 64|320 RANDOLPH MALL #E9|ASHEBORO|NC|27203|3653
313|GOLDSBOROBERKLEY 012360|623 BERKLEY BLVD STE C7||GOLDSBORO|NC|27534|2313
314|PADUCAH HINKLEVILLE RD 012388|5101 HINKLEVILLE RD 740||PADUCAH|KY|42001|2480
315|GREENBELTROAD 012437|6218 GREENBELT RD||GREENBELT|MD|20770|2400
316|HAGERSVALLEY MALL 012447|VALLEY MALL SHOP CTR|17301 VALLEY MALL RD #330|HAGERSTOWN|MD|21740|2481
317|HYATTSVILLEPRINCE GEORGE 012485|PRINCE GEORGE PLAZA|3500 EASTWEST HWY|HYATTSVILLE|MD|20782|2069
318|FORESTVILLEDONNELL 012493|3349 DONNELL DRIVE||FORESTVILLE|MD|20747|2758
319|YONKERSCROSS COUNTY 012679|CROSS COUNTY SHOP CTR|1BB XAVIER DR|YONKERS|NY|10704|2537
320|MASSAPEQUASUNRISE 012709|SUNRISE MALL|2140 SUNRISE MALL|MASSAPEQUA|NY|11758|2262
321|JERSEY CITYNEWPORT CTR 012755|NEWPORT CENTER MALL|30 MALL DR W STE 245|JERSEY CITY|NJ|7310|2114
322|NEW YORKBUS TERMINAL 012785|PORT AUTHORITY BUS TRMNL|625 8TH AVE|NEW YORK|NY|10018|1200
323|PARAMUS GARDEN STATE 012878|GARDEN STATE WESTFIELD|ROUTES 4 & 17|PARAMUS|NJ|7652|2201
324|NORFOLK MACARTHUR CTR 012937|MACARTHUR CENTER MALL|300 MONTICELLO AVE #263|NORFOLK|VA|23510|2676
325|BALTMONDAWMIN 012955|MONDAWMIN MALL #2003|2401 LIBERTY HGTS AV|BALTIMORE|MD|21215|2765
326|CARSON SOUTHBAY PAV 013023|SOUTHBAY PAVILLON|20700 5 AVALON BLVD #579|CARSON|CA|90746|2500
327|CANOGA PARKTOPANGA PLAZA 013052|TOPANGA PLAZA #1002|6600 TOPANGA CANYON BLVD|CANOGA PARK|CA|91303|2199
328|ALBANYHERITAGE MALL 013300|HERITAGE MALL|1969 14TH SE STE D413|ALBANY|OR|97322|2827
329|SILVERDALEKITSAP MALL 013382|10315 SILVERDALE WAY NW|P 0 BOX 3081|SILVERDALE|WA|98383|2640
330|PHOENIX SPECTRUM MALL 013403|PHOENIX SPECTRUM MALL|1615 W BETHANY HOME RD|PHOENIX|AZ|85015|2800
331|AIEAPEARL RIDGE MALL 013495|981005 MOANALUA RD #110||AIEA|HI|96701|5451
332|PANORAMA CITYMALL 013667|#76 PANORAMA CITY MALL|8401 VAN NUYS BLVD|PANORAMA CITY|CA|91402|2000
333|PALMDALEANTELOPE VALLEY 013687|ANTELOPE VALLEY MALL|1233 W AVENUE P STE 515|PALMDALE|CA|93551|2333
334|UNION GAPVALLEY MALL 013753|VALLEY MALL|2529 MAIN ST STE 179|UNION GAP|WA|98903|2703
335|EUGENEVALLEY RIVER CTR 013777|239 VALLEY RIVER CENTER||EUGENE|OR|97401|1837
336|EUREKABAYSHORE MALL 013881|BAYSHORE MALL|3300 BROADWAY ST STE 108|EUREKA|CA|95501|2837
337|LAS VEGASMARYLAND 013963|3596 5 MARYLAND PKWY||LAS VEGAS|NV|89169|2400
338|SANTA FECERRILLOS RD 014043|4250 CERRILLOS RD #1486|PO BOX 29715|SANTA FE|NM|87592|3202
339|RICHMON HEIGHTSMALL 014202|RICHMOND MALL|691 RICHMOND RD|RICHMOND HTS|OH|44143|2036
340|MIDDLETOWNGALLERIA 014247|GALLERIA @ CRYSTAL RUN|1 GALLERIA DR STE 136|MIDDLETOWN|NY|10941|2660
341|BRIDGEPORTMEADOWBROOK 014464|2850 MEADOWBROOK MALL||BRIDGEPORT|WV|26330|2350
342|OLD HICKORY MALL|OLD HICKORY MALL #B-3A|2021 N HIGHLAND AVE|JACKSON|TN|38305|2272
343|MADISONVILLEPARKWAY 014568|PARKWAY PLAZA MALL|455 MADISON SQ AVE|MADISONVILLE|KY|42431|2250
344|COLUMBIAS JAMES CAMPBELL 014589|5 JAMES CAMPBELL|620 5 JAMES CAMPBELL #B|COLUMBIA|TN|38401|2400
345|BEAVERCREEKFAIRFIELD COM 014613|MALL AT FAIRFIELD COMMON|2727 FAIRFIELD CMNS #W211|BEAVERCREEK|OH|45431|1857
346|TIFFINTIFFIN MALL 014759|TIFFIN MALL|870 WEST MARKET ST #90|TIFFIN|OH|44883|2234
347|BRISTOLMALL 014926|BRISTOL MALL|500 GATE CITY HWY|BRISTOL|VA|24201|2624
348|BISMARCK-KIRKWOOD MALL 01-6078|856 KIRKWOOD MALL||BISMARCK|ND|58504|2024
349|BEMIDJIPAUL BUNYAN MALL 016084|PAUL BUNYAN MALL|1401 PAUL BUNYAN DR NW|BEMIDJI|MN|56601|2597
350|MINOTDAKOTA SQ 016089|DAKOTA SQUARE MALL|2410 10TH ST SW #352|MINOT|ND|58701|2366
351|OTTUMWAQUINCY PLACE 016198|QUINCY PLACE|1110 N QUINCY AVE STE 72|OTTUMWA|IA|52501|1996
352|MILWAUKEEGRAND AVE 016267|THE GRAND AVE MALL|275 WEST WISCONSIN AVE|MILWAUKEE|WI|53203|1943
353|MUSKEGONLAKES MALL 016334|THE LAKES MALL|5600 HARVEY ST STE 2068|MUSKEGON|MI|49444|2412
354|HARLEM - IRVING PLAZA|HARLEM-IRVING PLAZA|4200 N HARLEM AVE STE 14|NORRIDGE|IL|60706|3540
355|PERU MALL|PERU MALL STE F-3|3940 RT 251|PERU|IL|61354|2338
356|LAFAYETTETIPPECANOE 016753|TIPPECANOE MALL 5 C|2415 5 SAGAMORE|LAFAYETTE|IN|47905|3070
357|GREENWOODPARK MALL 016781|GREENWOOD PARK MALL|1251 US 31 NORTH BOX 88|GREENWOOD|IN|46142|1997
358|BATTLE CREEKLAKEVIEW 016798|LAKEVIEW SQUARE MALL|5775 BECKLEY RD STE 213|BATTLE CREEK|MI|49015|2688
359|BAY CITY BAY CITY MALL 016996|BAY CITY MALL|4101 WILDER RD SP E513|BAY CITY|MI|48706|2567
360|SAN ANGELOSUNSET MALL 018035|SUNSET MALL|4001 SOUTHWEST BLVD #1152|SAN ANGELO|TX|76904|2489
361|LAREDOMALL DEL NORTE 018055|MALL DEL NORTE STE 117|5300 SAN DARIO STE 117|LAREDO|TX|78041|3960
362|SAN ANTONIONORTH STAR ML 018068|NORTH STAR MALL|7400 SAN PEDRO STE 30|SAN ANTONIO|TX|78216|2600
363|BEAUMONTPARKDALE 018078|PARKDALE MALL|6155 EASTEX FRWY STE 808|BEAUMONT|TX|77706|3520
364|HOUSTONTHE GALLERIA 018247|THE GALLERIA|5015 WESTHEIMER STE 1480A|HOUSTON|TX|77056|2791
365|EL PASOSUNLAND 018286|SUNLAND PARK PLAZA|750 SUNLAND PARK DR #G05|EL PASO|TX|79912|2957
366|TUPELOBARNES CROSSING 018435|BARNES CROSSING MALL|1001 BARNES XING RD #64|TUPELO|MS|38804|2859
367|OGDENNEWGATE MALL 018616|1198 NEWGATE MALL||OGDEN|UT|84405|2419
368|PUEBLO MALL 018682|PUEBLO MALL|3285 DILLON DR STE E12|PUEBLO|CO|81008|3650
369|SUMTER MALL 018750|SUMTER MALL|1057 BROAD ST STE 62|SUMTER|SC|29150|2408
370|GAINESVILLECOL LAKESHORE 018755|COLONIAL LAKESHORE MALL|150 PEARL NIX PARKWAY|GAINESVILLE|GA|30501|2775
371|ATLANTANORTHLAKE 018759|1106 NORTHLAKE MALL||ATLANTA|GA|30345|2779
372|VALDOSTAVALDOSTA MALL 018790|VALDOSTA MALL|1700 NORMAN DR|VALDOSTA|GA|31601|2295
373|5 DAYTONA-RIDGEWOOD 01-8820|OUTLET MALL|2400 5 RIDGEWOOD AVE #40|SOUTH DAYTONA|FL|32119|2370
374|MIAMICUTLER RIDGE 018829|CUTLER RIDGE MALL #1577|20505 SOUTH DIXIE|MIAMI|FL|33189|2700
375|MELBOURNEMELBOURNE SQ 018887|MELBOURNE SQUARE MALL|1700 W NEW HAVEN AVE #677|MELBOURNE|FL|32904|2500
376|MAYAGUEZMALL 018949|MAYAGUEZ MALL|975 AVE HOSTOS STE 113|MAYAGUEZ|PR|680|3517
377|PLAZA CAROLINA 018950|PLAZA CAROLINA SHP CTR|PO BOX 9245|CAROLINA|PR|988|2466
378|RIO PIEDRASSENORIAL 018958|SENORIAL PLAZA LOCAL 101||RIO PIEDRAS|PR|926|2550
379|ORLANDOFLORIDA MALL SC 018974|FLORIDA MALL SHP CTR #748|8001 5 ORNG BLOSSOM TRL|ORLANDO|FL|32809|2953
380|ALEXANDRIAALEXANDRIA 019119|ALEXANDRIA MALL|3437 MASONIC DR #1540|ALEXANDRIA|LA|71301|2184
381|GREENVILLE MALL|40 GREENVILLE MALL|1651 HWY 1 SOUTH|GREENVILLE|MS|38701|2525
382|TUSCALOOSAUNIVERSITY 019342|UNIVERSITY MALL|1701 MCFARLAND BLVD #162|TUSCALOOSA|AL|35404|2820
383|DALTONWALNUT SQ 019358|WALNUT SQUARE|2151 E WALNUT AVE #37|DALTON|GA|30721|2087
384|HOOVERRIVERCHASE 019361|RIVERCHASE GALLERIA #292|2000 RIVERCHASE GALLERIA|HOOVER|AL|35244|2406
385|TAMPAUNIVERSITY MALL 019505|UNIVERSITY MALL|2260 UNIVERSITY SQ MALL|TAMPA|FL|33612|2408
386|PONCEPLAZA DEL CARIBE 019552|PLAZA DEL CARIBE|2050 PONCE BYPASS STE 253|PONCE|PR|731|2604
387|PLAZA DEL NORTE|P1.2 DEL NORTE LOCAL D-144|506 TRUNCADO ST PR 2|HATILLO|PR|659|2336
388|CAGUASLAS CATALINAS 019559|LAS CATALINAS MALL|LOCAL #370|CAGUAS|PR|725|3145
389|VEGA ALTA CENTRO GRAN 019571|CENTRO GRAN CARIBE|CARR #2 KM 29.7|VEGA ALTA|PR|692|2501
390|CANOVANAS BELZ FCTRY OUTL 019572|BELZ FACTORY OUTLET WLD|18400 CARR 3 STE 300|CANOVANAS|PR|729|3045
391|BAYAMON PLAZA DEL SOL 019573|PLAZA DEL SOL|PR29 AND PR 167|BAYAMON|PR|956|2963
392|AGUADILLAAGUADILLA MALL 019595|AGUADILLA MALL|ST RD 2 KM 126.5 LOCAL 34|AGUADILLA|PR|603|3056
393|COLUMBUSPEACHTREE 019609|PEACHTREE MALL|3131 MANCHESTER EXPY #1A|COLUMBUS|GA|31909|2575
394|ALBANYMALL 019612|ALBANY MALL|2601 DAWSON RD|ALBANY|GA|31707|2322
395|SPARTANBURGWESTGATE 019613|WESTGATE MALL SUITE 240|205 W BLACKSTOCK RD|SPARTANBURG|SC|29301|2538
396|LAGRANGE MALL 019680|LAGRANGE MALL|1501 LAFAYETTE PKWY #D2|LAGRANGE|GA|30241|2030
397|WAYCROSSHATCHER POINT 019685|HATCHER POINT MALL|2215 MEMORIAL DR|WAYCROSS|GA|31501|1875
398|METAIRIELAKESIDE 019748|LAKESIDE SHOPPING CENTER|3301 VETERANS MEMORIAL|METAIRIE|LA|70002|2366
399|LAURELSAWMILL SQ 019810|SAWMILL SQUARE MALL|910 SAWMILL RD STE 240|LAUREL|MS|39440|2264
400|NATCHEZMALL 019818|NATCHEZ MALL|350 JOHN R JUNKIN DR|NATCHEZ|MS|39120|2070
401|LUBBOCKS PLAINS MALL 019909|SOUTH PLAINS MALL|6002 SLIDE RD STE D24|LUBBOCK|TX|79414|2420
